{"type": "FeatureCollection", "features": [{"id": "0", "type": "Feature", "properties": {"element": "node", "id": 747616456, "amenity": "school", "name": "Akshaya", "addr:housename": null, "addr:housenumber": null, "addr:postcode": null, "alt_name": null, "source": null, "is_in": null, "addr:suburb": null, "name:ta": null, "addr:street": null, "addr:city": null, "air_conditioning": null, "community_centre": null, "mobile": null, "brand": null, "brand:wikidata": null, "education": null, "layer": null, "website": null, "wikidata": null, "wikipedia": null, "created_by": null, "name:etymology:wikidata": null, "email": null, "phone": null, "short_name": null, "start_date": null, "building": null, "name:en": null, "operator": null, "grades": null, "operator:type": null}, "geometry": {"type": "Point", "coordinates": [80.2224844, 12.9787977]}}, {"id": "1", "type": "Feature", "properties": {"element": "node", "id": 1003378082, "amenity": "school", "name": "Bala Saravana Matriculation School", "addr:housename": null, "addr:housenumber": null, "addr:postcode": null, "alt_name": null, "source": null, "is_in": null, "addr:suburb": null, "name:ta": null, "addr:street": null, "addr:city": null, "air_conditioning": null, "community_centre": null, "mobile": null, "brand": null, "brand:wikidata": null, "education": null, "layer": null, "website": null, "wikidata": null, "wikipedia": null, "created_by": null, "name:etymology:wikidata": null, "email": null, "phone": null, "short_name": null, "start_date": null, "building": null, "name:en": null, "operator": null, "grades": null, "operator:type": null}, "geometry": {"type": "Point", "coordinates": [80.2104214, 12.9831591]}}, {"id": "2", "type": "Feature", "properties": {"element": "node", "id": 1596154407, "amenity": "school", "name": "Lets do Something - Activity center", "addr:housename": "41", "addr:housenumber": "Sarathy Nagar", "addr:postcode": "600045", "alt_name": "LDS", "source": "www.letsdosomething.in", "is_in": null, "addr:suburb": null, "name:ta": null, "addr:street": null, "addr:city": null, "air_conditioning": null, "community_centre": null, "mobile": null, "brand": null, "brand:wikidata": null, "education": null, "layer": null, "website": null, "wikidata": null, "wikipedia": null, "created_by": null, "name:etymology:wikidata": null, "email": null, "phone": null, "short_name": null, "start_date": null, "building": null, "name:en": null, "operator": null, "grades": null, "operator:type": null}, "geometry": {"type": "Point", "coordinates": [80.221575, 12.9758373]}}, {"id": "3", "type": "Feature", "properties": {"element": "node", "id": 1636171309, "amenity": "school", "name": "SAN Academy", "addr:housename": null, "addr:housenumber": null, "addr:postcode": null, "alt_name": null, "source": null, "is_in": null, "addr:suburb": null, "name:ta": null, "addr:street": null, "addr:city": null, "air_conditioning": null, "community_centre": null, "mobile": null, "brand": null, "brand:wikidata": null, "education": null, "layer": null, "website": null, "wikidata": null, "wikipedia": null, "created_by": null, "name:etymology:wikidata": null, "email": null, "phone": null, "short_name": null, "start_date": null, "building": null, "name:en": null, "operator": null, "grades": null, "operator:type": null}, "geometry": {"type": "Point", "coordinates": [80.2123879, 12.9757851]}}, {"id": "4", "type": "Feature", "properties": {"element": "node", "id": 4294274187, "amenity": "school", "name": "Chennai Primary School", "addr:housename": null, "addr:housenumber": null, "addr:postcode": null, "alt_name": null, "source": null, "is_in": "Udhayam Nagar;Velachery;", "addr:suburb": null, "name:ta": null, "addr:street": null, "addr:city": null, "air_conditioning": null, "community_centre": null, "mobile": null, "brand": null, "brand:wikidata": null, "education": null, "layer": null, "website": null, "wikidata": null, "wikipedia": null, "created_by": null, "name:etymology:wikidata": null, "email": null, "phone": null, "short_name": null, "start_date": null, "building": null, "name:en": null, "operator": null, "grades": null, "operator:type": null}, "geometry": {"type": "Point", "coordinates": [80.2320468, 12.9801464]}}, {"id": "5", "type": "Feature", "properties": {"element": "node", "id": 4300667140, "amenity": "school", "name": "Chennai Higher Secondary School", "addr:housename": null, "addr:housenumber": null, "addr:postcode": null, "alt_name": null, "source": null, "is_in": null, "addr:suburb": "Velachery", "name:ta": null, "addr:street": null, "addr:city": null, "air_conditioning": null, "community_centre": null, "mobile": null, "brand": null, "brand:wikidata": null, "education": null, "layer": null, "website": null, "wikidata": null, "wikipedia": null, "created_by": null, "name:etymology:wikidata": null, "email": null, "phone": null, "short_name": null, "start_date": null, "building": null, "name:en": null, "operator": null, "grades": null, "operator:type": null}, "geometry": {"type": "Point", "coordinates": [80.218948, 12.9852163]}}, {"id": "6", "type": "Feature", "properties": {"element": "node", "id": 4411778295, "amenity": "school", "name": "Sivasakthi Matriculation School", "addr:housename": null, "addr:housenumber": null, "addr:postcode": null, "alt_name": null, "source": null, "is_in": null, "addr:suburb": null, "name:ta": "\u0b9a\u0bbf\u0bb5\u0b9a\u0b95\u0bcd\u0ba4\u0bbf \u0bae\u0bc6\u0b9f\u0bcd\u0bb0\u0bbf\u0b95\u0bc1\u0bb2\u0bc7\u0bb7\u0ba9\u0bcd \u0baa\u0bb3\u0bcd\u0bb3\u0bbf", "addr:street": null, "addr:city": null, "air_conditioning": null, "community_centre": null, "mobile": null, "brand": null, "brand:wikidata": null, "education": null, "layer": null, "website": null, "wikidata": null, "wikipedia": null, "created_by": null, "name:etymology:wikidata": null, "email": null, "phone": null, "short_name": null, "start_date": null, "building": null, "name:en": null, "operator": null, "grades": null, "operator:type": null}, "geometry": {"type": "Point", "coordinates": [80.2185153, 12.9875802]}}, {"id": "7", "type": "Feature", "properties": {"element": "node", "id": 4450536979, "amenity": "school", "name": "St Antony School", "addr:housename": null, "addr:housenumber": null, "addr:postcode": null, "alt_name": null, "source": null, "is_in": null, "addr:suburb": null, "name:ta": null, "addr:street": null, "addr:city": null, "air_conditioning": null, "community_centre": null, "mobile": null, "brand": null, "brand:wikidata": null, "education": null, "layer": null, "website": null, "wikidata": null, "wikipedia": null, "created_by": null, "name:etymology:wikidata": null, "email": null, "phone": null, "short_name": null, "start_date": null, "building": null, "name:en": null, "operator": null, "grades": null, "operator:type": null}, "geometry": {"type": "Point", "coordinates": [80.226075, 12.9767972]}}, {"id": "8", "type": "Feature", "properties": {"element": "node", "id": 5570545748, "amenity": "school", "name": null, "addr:housename": null, "addr:housenumber": null, "addr:postcode": null, "alt_name": null, "source": null, "is_in": null, "addr:suburb": null, "name:ta": null, "addr:street": null, "addr:city": null, "air_conditioning": null, "community_centre": null, "mobile": null, "brand": null, "brand:wikidata": null, "education": null, "layer": null, "website": null, "wikidata": null, "wikipedia": null, "created_by": null, "name:etymology:wikidata": null, "email": null, "phone": null, "short_name": null, "start_date": null, "building": null, "name:en": null, "operator": null, "grades": null, "operator:type": null}, "geometry": {"type": "Point", "coordinates": [80.2277188, 12.9853379]}}, {"id": "9", "type": "Feature", "properties": {"element": "node", "id": 5714965849, "amenity": "community_centre", "name": "Kallukuttai Community Network Place II", "addr:housename": null, "addr:housenumber": null, "addr:postcode": null, "alt_name": null, "source": null, "is_in": null, "addr:suburb": null, "name:ta": null, "addr:street": "Kallukuttai", "addr:city": null, "air_conditioning": null, "community_centre": null, "mobile": null, "brand": null, "brand:wikidata": null, "education": null, "layer": null, "website": null, "wikidata": null, "wikipedia": null, "created_by": null, "name:etymology:wikidata": null, "email": null, "phone": null, "short_name": null, "start_date": null, "building": null, "name:en": null, "operator": null, "grades": null, "operator:type": null}, "geometry": {"type": "Point", "coordinates": [80.2330226, 12.9698305]}}, {"id": "10", "type": "Feature", "properties": {"element": "node", "id": 13931255798, "amenity": "community_centre", "name": "Mohana Convention Hall", "addr:housename": null, "addr:housenumber": "No. 131/137", "addr:postcode": "600042", "alt_name": null, "source": null, "is_in": null, "addr:suburb": null, "name:ta": null, "addr:street": "Velachery Bypass Road", "addr:city": "Chennai", "air_conditioning": "yes", "community_centre": "events_venue", "mobile": "+91 9444086161;+91 9566297171", "brand": null, "brand:wikidata": null, "education": null, "layer": null, "website": null, "wikidata": null, "wikipedia": null, "created_by": null, "name:etymology:wikidata": null, "email": null, "phone": null, "short_name": null, "start_date": null, "building": null, "name:en": null, "operator": null, "grades": null, "operator:type": null}, "geometry": {"type": "Point", "coordinates": [80.2193731, 12.9785576]}}, {"id": "11", "type": "Feature", "properties": {"element": "way", "id": 27768551, "amenity": "school", "name": "Kendriya Vidyalaya IIT Chennai", "addr:housename": null, "addr:housenumber": null, "addr:postcode": null, "alt_name": null, "source": null, "is_in": null, "addr:suburb": null, "name:ta": null, "addr:street": null, "addr:city": null, "air_conditioning": null, "community_centre": null, "mobile": null, "brand": "Kendriya Vidyalaya", "brand:wikidata": "Q1156653", "education": "school", "layer": "1", "website": "https://chennaiiit.kvs.ac.in/en/", "wikidata": "Q55615537", "wikipedia": "en:KV IIT Chennai", "created_by": null, "name:etymology:wikidata": null, "email": null, "phone": null, "short_name": null, "start_date": null, "building": null, "name:en": null, "operator": null, "grades": null, "operator:type": null}, "geometry": {"type": "Point", "coordinates": [80.2328239950313, 12.992685999999999]}}, {"id": "12", "type": "Feature", "properties": {"element": "way", "id": 28507306, "amenity": "school", "name": "Guru Nanak School", "addr:housename": null, "addr:housenumber": null, "addr:postcode": null, "alt_name": null, "source": null, "is_in": null, "addr:suburb": null, "name:ta": null, "addr:street": null, "addr:city": null, "air_conditioning": null, "community_centre": null, "mobile": null, "brand": null, "brand:wikidata": null, "education": null, "layer": null, "website": null, "wikidata": null, "wikipedia": null, "created_by": "Potlatch 0.10f", "name:etymology:wikidata": "Q83322", "email": null, "phone": null, "short_name": null, "start_date": null, "building": null, "name:en": null, "operator": null, "grades": null, "operator:type": null}, "geometry": {"type": "Point", "coordinates": [80.22097352675046, 12.99068985]}}, {"id": "13", "type": "Feature", "properties": {"element": "way", "id": 28507322, "amenity": "college", "name": "Guru Nanak College", "addr:housename": null, "addr:housenumber": null, "addr:postcode": null, "alt_name": null, "source": null, "is_in": null, "addr:suburb": null, "name:ta": null, "addr:street": null, "addr:city": null, "air_conditioning": null, "community_centre": null, "mobile": null, "brand": null, "brand:wikidata": null, "education": null, "layer": null, "website": null, "wikidata": null, "wikipedia": "en:Guru Nanak College, Chennai", "created_by": null, "name:etymology:wikidata": "Q83322", "email": null, "phone": null, "short_name": null, "start_date": null, "building": null, "name:en": null, "operator": null, "grades": null, "operator:type": null}, "geometry": {"type": "Point", "coordinates": [80.22155836289596, 12.99175455]}}, {"id": "14", "type": "Feature", "properties": {"element": "way", "id": 164933758, "amenity": "school", "name": "D.A.V Public School", "addr:housename": "D.A.V Public School", "addr:housenumber": "No 19", "addr:postcode": "600042", "alt_name": null, "source": null, "is_in": null, "addr:suburb": null, "name:ta": null, "addr:street": "Dr.Seetharaman Nagar", "addr:city": null, "air_conditioning": null, "community_centre": null, "mobile": null, "brand": null, "brand:wikidata": null, "education": null, "layer": null, "website": "https://davpsvelacherychennai.edu.in/", "wikidata": "Q3521127", "wikipedia": "en:D.A.V. Public School, Velachery", "created_by": null, "name:etymology:wikidata": null, "email": "davpsmma@yahoo.co.in", "phone": "+91 44 6606 9806", "short_name": "DAVPS", "start_date": "1990", "building": null, "name:en": null, "operator": null, "grades": null, "operator:type": null}, "geometry": {"type": "Point", "coordinates": [80.22260771007349, 12.97235015]}}, {"id": "15", "type": "Feature", "properties": {"element": "way", "id": 188162845, "amenity": "school", "name": "Shri A. Ganesan Matriculation Higher Secondary School", "addr:housename": null, "addr:housenumber": null, "addr:postcode": null, "alt_name": null, "source": null, "is_in": null, "addr:suburb": null, "name:ta": null, "addr:street": null, "addr:city": null, "air_conditioning": null, "community_centre": null, "mobile": null, "brand": null, "brand:wikidata": null, "education": null, "layer": null, "website": "https://agmhsschool.org/", "wikidata": null, "wikipedia": null, "created_by": null, "name:etymology:wikidata": null, "email": "aganesanschool@gmail.com", "phone": null, "short_name": null, "start_date": null, "building": null, "name:en": null, "operator": null, "grades": null, "operator:type": null}, "geometry": {"type": "Point", "coordinates": [80.22029218430043, 12.97266145]}}, {"id": "16", "type": "Feature", "properties": {"element": "way", "id": 354569784, "amenity": "school", "name": "St. Savio Matriculation Higher secondary school", "addr:housename": null, "addr:housenumber": null, "addr:postcode": null, "alt_name": null, "source": null, "is_in": null, "addr:suburb": null, "name:ta": null, "addr:street": null, "addr:city": null, "air_conditioning": null, "community_centre": null, "mobile": null, "brand": null, "brand:wikidata": null, "education": null, "layer": null, "website": null, "wikidata": null, "wikipedia": null, "created_by": null, "name:etymology:wikidata": null, "email": null, "phone": null, "short_name": null, "start_date": null, "building": "yes", "name:en": null, "operator": null, "grades": null, "operator:type": null}, "geometry": {"type": "Point", "coordinates": [80.22619180000001, 12.9817436]}}, {"id": "17", "type": "Feature", "properties": {"element": "way", "id": 354767727, "amenity": "community_centre", "name": "Rajalakshmi Kalyana Mandapam", "addr:housename": null, "addr:housenumber": null, "addr:postcode": null, "alt_name": null, "source": null, "is_in": null, "addr:suburb": null, "name:ta": null, "addr:street": null, "addr:city": null, "air_conditioning": null, "community_centre": null, "mobile": null, "brand": null, "brand:wikidata": null, "education": null, "layer": null, "website": null, "wikidata": null, "wikipedia": null, "created_by": null, "name:etymology:wikidata": null, "email": null, "phone": null, "short_name": null, "start_date": null, "building": "yes", "name:en": null, "operator": null, "grades": null, "operator:type": null}, "geometry": {"type": "Point", "coordinates": [80.22397282357511, 12.98498825]}}, {"id": "18", "type": "Feature", "properties": {"element": "way", "id": 355664883, "amenity": "community_centre", "name": "\u0bb8\u0bcd\u0bb0\u0bc0 \u0bae\u0bc1\u0bb0\u0bc1\u0b95\u0ba9\u0bcd \u0ba4\u0bbf\u0bb0\u0bc1\u0bae\u0ba3 \u0bae\u0ba3\u0bcd\u0b9f\u0baa\u0bae\u0bcd", "addr:housename": null, "addr:housenumber": null, "addr:postcode": null, "alt_name": null, "source": null, "is_in": null, "addr:suburb": null, "name:ta": null, "addr:street": null, "addr:city": null, "air_conditioning": null, "community_centre": "events_venue", "mobile": null, "brand": null, "brand:wikidata": null, "education": null, "layer": null, "website": null, "wikidata": null, "wikipedia": null, "created_by": null, "name:etymology:wikidata": null, "email": null, "phone": null, "short_name": null, "start_date": null, "building": "yes", "name:en": "Sri Murugan Convention Centre", "operator": null, "grades": null, "operator:type": null}, "geometry": {"type": "Point", "coordinates": [80.21749700122797, 12.98405325]}}, {"id": "19", "type": "Feature", "properties": {"element": "way", "id": 428484763, "amenity": "school", "name": "Government Higher Secondary School, Velachery", "addr:housename": null, "addr:housenumber": null, "addr:postcode": null, "alt_name": null, "source": null, "is_in": null, "addr:suburb": null, "name:ta": null, "addr:street": null, "addr:city": null, "air_conditioning": null, "community_centre": null, "mobile": null, "brand": null, "brand:wikidata": null, "education": null, "layer": null, "website": null, "wikidata": null, "wikipedia": null, "created_by": null, "name:etymology:wikidata": null, "email": null, "phone": null, "short_name": null, "start_date": null, "building": null, "name:en": null, "operator": "Tamilnadu Govt.", "grades": null, "operator:type": null}, "geometry": {"type": "Point", "coordinates": [80.21997596527498, 12.987819349999999]}}, {"id": "20", "type": "Feature", "properties": {"element": "way", "id": 938699837, "amenity": "school", "name": "Sunshine Senior Secondary School", "addr:housename": null, "addr:housenumber": "86/2", "addr:postcode": "600091", "alt_name": null, "source": null, "is_in": null, "addr:suburb": null, "name:ta": null, "addr:street": "Inner Ring Road", "addr:city": "Chennai", "air_conditioning": null, "community_centre": null, "mobile": null, "brand": null, "brand:wikidata": null, "education": null, "layer": null, "website": "https://www.sunshineschool.in/", "wikidata": null, "wikipedia": null, "created_by": null, "name:etymology:wikidata": null, "email": "info@sunshineschool.in", "phone": "+91 94442 38420", "short_name": null, "start_date": null, "building": null, "name:en": null, "operator": "Rays Educational Trust", "grades": "1-12", "operator:type": "private"}, "geometry": {"type": "Point", "coordinates": [80.20920704557247, 12.97353855]}}, {"id": "21", "type": "Feature", "properties": {"element": "way", "id": 1323805507, "amenity": "school", "name": "Sri Chaitanya Techno School", "addr:housename": null, "addr:housenumber": "374/1P", "addr:postcode": "600042", "alt_name": null, "source": null, "is_in": null, "addr:suburb": null, "name:ta": null, "addr:street": "Kaveri Street", "addr:city": "Chennai", "air_conditioning": null, "community_centre": null, "mobile": null, "brand": null, "brand:wikidata": null, "education": null, "layer": null, "website": "https://srichaitanyaschool.net/school/Velachery", "wikidata": null, "wikipedia": null, "created_by": null, "name:etymology:wikidata": null, "email": null, "phone": null, "short_name": null, "start_date": null, "building": null, "name:en": null, "operator": null, "grades": null, "operator:type": null}, "geometry": {"type": "Point", "coordinates": [80.21791495695471, 12.9775619]}}, {"id": "22", "type": "Feature", "properties": {"element": "way", "id": 1323806867, "amenity": "school", "name": "Bethel Matriculation hr sec school", "addr:housename": null, "addr:housenumber": null, "addr:postcode": null, "alt_name": null, "source": null, "is_in": null, "addr:suburb": null, "name:ta": null, "addr:street": null, "addr:city": null, "air_conditioning": null, "community_centre": null, "mobile": null, "brand": null, "brand:wikidata": null, "education": null, "layer": null, "website": null, "wikidata": null, "wikipedia": null, "created_by": null, "name:etymology:wikidata": null, "email": null, "phone": null, "short_name": null, "start_date": null, "building": null, "name:en": null, "operator": null, "grades": null, "operator:type": null}, "geometry": {"type": "Point", "coordinates": [80.22294093419441, 12.9759618]}}, {"id": "23", "type": "Feature", "properties": {"element": "way", "id": 1544017031, "amenity": "school", "name": "St. Britto's Academy Senior Secondary School", "addr:housename": null, "addr:housenumber": "R3", "addr:postcode": "600042", "alt_name": null, "source": null, "is_in": null, "addr:suburb": null, "name:ta": "\u0b9a\u0bc6\u0baf\u0bbf\u0ba9\u0bcd\u0b9f\u0bcd \u0baa\u0bbf\u0bb0\u0bbf\u0b9f\u0bcd\u0b9f\u0bcb\u0bb8\u0bcd \u0b85\u0b95\u0bbe\u0b9f\u0bae\u0bbf", "addr:street": "Nethaji Road", "addr:city": "Chennai", "air_conditioning": null, "community_centre": null, "mobile": "+919840866053", "brand": null, "brand:wikidata": null, "education": "school", "layer": null, "website": "https://stbrittosacademy.edu.in/", "wikidata": null, "wikipedia": null, "created_by": null, "name:etymology:wikidata": null, "email": "admin@stbrittosacademy.edu.in", "phone": "+914422447514", "short_name": null, "start_date": null, "building": null, "name:en": null, "operator": null, "grades": null, "operator:type": null}, "geometry": {"type": "Point", "coordinates": [80.21023156385898, 12.9932335]}}]}