{"type": "FeatureCollection", "features": [{"id": "0", "type": "Feature", "properties": {"element": "way", "id": 27709553, "layer": "-1", "name": "Raj Bhavan Canal", "waterway": "drain", "tunnel": null, "intermittent": null}, "geometry": {"type": "LineString", "coordinates": [[80.2176754, 12.9954573], [80.2170965, 12.9951777]]}}, {"id": "1", "type": "Feature", "properties": {"element": "way", "id": 30037017, "layer": null, "name": null, "waterway": "drain", "tunnel": null, "intermittent": null}, "geometry": {"type": "LineString", "coordinates": [[80.2355812, 12.9897175], [80.2356148, 12.989941], [80.2355833, 12.9904221], [80.2357385, 12.9911863], [80.2359383, 12.9923779], [80.236078, 12.9927112], [80.2361845, 12.9927915], [80.2364274, 12.9929746], [80.2369112, 12.9931788], [80.2371853, 12.99341], [80.2372245, 12.9934942]]}}, {"id": "2", "type": "Feature", "properties": {"element": "way", "id": 102550210, "layer": "-1", "name": null, "waterway": "drain", "tunnel": null, "intermittent": null}, "geometry": {"type": "LineString", "coordinates": [[80.2103977, 12.9888797], [80.2120121, 12.988756], [80.2149296, 12.9880186], [80.2172517, 12.9873198], [80.2180981, 12.9870545]]}}, {"id": "3", "type": "Feature", "properties": {"element": "way", "id": 102550213, "layer": "-1", "name": null, "waterway": "drain", "tunnel": "yes", "intermittent": null}, "geometry": {"type": "LineString", "coordinates": [[80.2180981, 12.9870545], [80.2184063, 12.9869953]]}}, {"id": "4", "type": "Feature", "properties": {"element": "way", "id": 102550242, "layer": "-1", "name": null, "waterway": "drain", "tunnel": null, "intermittent": null}, "geometry": {"type": "LineString", "coordinates": [[80.2184063, 12.9869953], [80.2186568, 12.9869377], [80.2190116, 12.9868194], [80.2193803, 12.9867012], [80.2198398, 12.9864879], [80.220859, 12.9861691], [80.2222806, 12.9855523], [80.2225596, 12.9852282], [80.2225167, 12.9848727]]}}, {"id": "5", "type": "Feature", "properties": {"element": "way", "id": 102580554, "layer": "-1", "name": "Raj Bhavan Canal", "waterway": "drain", "tunnel": null, "intermittent": null}, "geometry": {"type": "LineString", "coordinates": [[80.2169341, 12.995015], [80.2166057, 12.9948664], [80.2164651, 12.9945265], [80.2159568, 12.9938105], [80.2148891, 12.9940552], [80.2144599, 12.9933527], [80.2140849, 12.99306], [80.2139039, 12.9927141], [80.2144135, 12.9924686], [80.2142957, 12.9920692], [80.2144673, 12.9919869], [80.2143842, 12.9917099], [80.214297, 12.9915191], [80.2142635, 12.9914877], [80.2141696, 12.9913315], [80.214126, 12.9913159], [80.2140261, 12.991344], [80.2139986, 12.9913329], [80.2139685, 12.9912682], [80.2139368, 12.9911804], [80.2143998, 12.9909524], [80.2147346, 12.9906262], [80.2153237, 12.9904213], [80.2151669, 12.9897027], [80.2150516, 12.9890484]]}}, {"id": "6", "type": "Feature", "properties": {"element": "way", "id": 102580558, "layer": "-1", "name": "Raj Bhavan Canal", "waterway": "drain", "tunnel": "yes", "intermittent": null}, "geometry": {"type": "LineString", "coordinates": [[80.2150516, 12.9890484], [80.2150291, 12.9887956]]}}, {"id": "7", "type": "Feature", "properties": {"element": "way", "id": 102580561, "layer": "-1", "name": "Raj Bhavan Canal", "waterway": "drain", "tunnel": "yes", "intermittent": null}, "geometry": {"type": "LineString", "coordinates": [[80.2170965, 12.9951777], [80.2169341, 12.995015]]}}, {"id": "8", "type": "Feature", "properties": {"element": "way", "id": 102580579, "layer": "-1", "name": "Raj Bhavan Canal", "waterway": "drain", "tunnel": null, "intermittent": null}, "geometry": {"type": "LineString", "coordinates": [[80.2150291, 12.9887956], [80.2149296, 12.9880186]]}}, {"id": "9", "type": "Feature", "properties": {"element": "way", "id": 103716694, "layer": "-1", "name": "drain path", "waterway": "canal", "tunnel": "culvert", "intermittent": null}, "geometry": {"type": "LineString", "coordinates": [[80.2180981, 12.9870545], [80.2177916, 12.9858328], [80.2177584, 12.9856646], [80.2177423, 12.985385], [80.2177584, 12.9848962], [80.2177901, 12.98396], [80.2178365, 12.9825989], [80.2178825, 12.9818598], [80.2179014, 12.9817607], [80.2179817, 12.9813395], [80.2181178, 12.9809225]]}}, {"id": "10", "type": "Feature", "properties": {"element": "way", "id": 384187222, "layer": "-1", "name": "Stormwater Drain", "waterway": "drain", "tunnel": "no", "intermittent": null}, "geometry": {"type": "LineString", "coordinates": [[80.221378, 12.9712841], [80.2215844, 12.9712471], [80.2219642, 12.9711908], [80.222093, 12.9711698], [80.2222267, 12.9711489], [80.2223737, 12.9711232], [80.2225156, 12.9711055], [80.2225102, 12.9708588], [80.2225202, 12.9708576]]}}, {"id": "11", "type": "Feature", "properties": {"element": "way", "id": 384187223, "layer": "-1", "name": null, "waterway": "drain", "tunnel": null, "intermittent": null}, "geometry": {"type": "LineString", "coordinates": [[80.2219198, 12.9749497], [80.2221838, 12.9749348], [80.222443, 12.9750458], [80.2225536, 12.9748238], [80.2225984, 12.9748318], [80.2230422, 12.9748889], [80.2234086, 12.9749204]]}}, {"id": "12", "type": "Feature", "properties": {"element": "way", "id": 835785681, "layer": "-1", "name": "Stormwater Drain", "waterway": "drain", "tunnel": "culvert", "intermittent": null}, "geometry": {"type": "LineString", "coordinates": [[80.2225202, 12.9708576], [80.2225438, 12.9708561]]}}, {"id": "13", "type": "Feature", "properties": {"element": "way", "id": 835785682, "layer": "-1", "name": "Stormwater Drain", "waterway": "drain", "tunnel": "no", "intermittent": null}, "geometry": {"type": "LineString", "coordinates": [[80.2225438, 12.9708561], [80.222623, 12.9708513], [80.2229169, 12.9708786], [80.2230407, 12.9708915]]}}, {"id": "14", "type": "Feature", "properties": {"element": "way", "id": 1080320417, "layer": null, "name": "Veerangal Canal", "waterway": "drain", "tunnel": null, "intermittent": "yes"}, "geometry": {"type": "LineString", "coordinates": [[80.2043363, 12.9787079], [80.2055702, 12.9784969], [80.2056962, 12.9784324], [80.2056496, 12.9783125], [80.2055891, 12.9781226], [80.2055702, 12.9778523], [80.2054631, 12.9776283], [80.2054631, 12.977527], [80.205819, 12.9772354], [80.2063419, 12.9768825], [80.2070726, 12.9763116], [80.2081498, 12.9754676], [80.2085466, 12.9752067], [80.2095072, 12.9744302], [80.2097561, 12.9742798], [80.2099765, 12.9740619], [80.2105277, 12.9736015], [80.2110758, 12.9732117], [80.2114317, 12.9728864], [80.2118002, 12.9726685], [80.2125907, 12.9719963], [80.2130159, 12.9715543], [80.2135766, 12.9710939], [80.2141781, 12.9705691], [80.2150005, 12.9698734], [80.2156774, 12.969323], [80.2165321, 12.9687421], [80.2175719, 12.968316], [80.2172481, 12.9676762], [80.2169979, 12.9669812], [80.2159232, 12.9641369]]}}, {"id": "15", "type": "Feature", "properties": {"element": "way", "id": 1105956376, "layer": "-1", "name": "drain path", "waterway": "canal", "tunnel": "culvert", "intermittent": null}, "geometry": {"type": "LineString", "coordinates": [[80.2189656, 12.9715302], [80.2185218, 12.9705957], [80.2179664, 12.9692704], [80.2175719, 12.968316]]}}, {"id": "16", "type": "Feature", "properties": {"element": "way", "id": 1458961208, "layer": null, "name": null, "waterway": "drain", "tunnel": null, "intermittent": null}, "geometry": {"type": "LineString", "coordinates": [[80.2355298, 12.988411], [80.2355601, 12.9896371]]}}, {"id": "17", "type": "Feature", "properties": {"element": "way", "id": 1458961209, "layer": "-1", "name": null, "waterway": "drain", "tunnel": "culvert", "intermittent": null}, "geometry": {"type": "LineString", "coordinates": [[80.2355601, 12.9896371], [80.2355812, 12.9897175]]}}]}