{"type": "FeatureCollection", "features": [{"id": "0", "type": "Feature", "properties": {"element": "node", "id": 1993266486, "amenity": "hospital", "healthcare": "hospital", "name": "Ortho clinic", "addr:postcode": null, "is_in": null, "name:en": null, "addr:street": null, "addr:district": null, "addr:full": null, "addr:state": null, "source": null, "check_date": null, "addr:city": null, "operator": null, "operator:type": null, "operator:wikidata": null, "website": null, "healthcare:speciality": null, "addr:housenumber": null, "email": null, "phone": null, "opening_hours": null, "name:ta": null, "building": null, "comment": null, "emergency": null}, "geometry": {"type": "Point", "coordinates": [80.2286587, 12.9800456]}}, {"id": "1", "type": "Feature", "properties": {"element": "node", "id": 3372786283, "amenity": "hospital", "healthcare": "hospital", "name": "Velachery SABA Hospital", "addr:postcode": "600042", "is_in": "Velachery;Chennai;TN;Tamilnadu", "name:en": null, "addr:street": null, "addr:district": null, "addr:full": null, "addr:state": null, "source": null, "check_date": null, "addr:city": null, "operator": null, "operator:type": null, "operator:wikidata": null, "website": null, "healthcare:speciality": null, "addr:housenumber": null, "email": null, "phone": null, "opening_hours": null, "name:ta": null, "building": null, "comment": null, "emergency": null}, "geometry": {"type": "Point", "coordinates": [80.2298924, 12.9862735]}}, {"id": "2", "type": "Feature", "properties": {"element": "node", "id": 3687711447, "amenity": "hospital", "healthcare": "hospital", "name": "Kaya Skin clinic", "addr:postcode": null, "is_in": null, "name:en": null, "addr:street": null, "addr:district": null, "addr:full": null, "addr:state": null, "source": null, "check_date": null, "addr:city": null, "operator": null, "operator:type": null, "operator:wikidata": null, "website": null, "healthcare:speciality": null, "addr:housenumber": null, "email": null, "phone": null, "opening_hours": null, "name:ta": null, "building": null, "comment": null, "emergency": null}, "geometry": {"type": "Point", "coordinates": [80.2223505, 12.9767775]}}, {"id": "3", "type": "Feature", "properties": {"element": "node", "id": 4411855591, "amenity": "clinic", "healthcare": "clinic", "name": null, "addr:postcode": null, "is_in": null, "name:en": "xcellent clinic", "addr:street": null, "addr:district": null, "addr:full": null, "addr:state": null, "source": null, "check_date": null, "addr:city": null, "operator": null, "operator:type": null, "operator:wikidata": null, "website": null, "healthcare:speciality": null, "addr:housenumber": null, "email": null, "phone": null, "opening_hours": null, "name:ta": null, "building": null, "comment": null, "emergency": null}, "geometry": {"type": "Point", "coordinates": [80.2201536, 12.9745585]}}, {"id": "4", "type": "Feature", "properties": {"element": "node", "id": 5570522545, "amenity": "hospital", "healthcare": "hospital", "name": "ARK Hospital", "addr:postcode": null, "is_in": "Velachery;Chennai;Tamilnadu;TN;India;IN", "name:en": null, "addr:street": "Gandhi Road", "addr:district": null, "addr:full": null, "addr:state": null, "source": null, "check_date": null, "addr:city": null, "operator": null, "operator:type": null, "operator:wikidata": null, "website": null, "healthcare:speciality": null, "addr:housenumber": null, "email": null, "phone": null, "opening_hours": null, "name:ta": null, "building": null, "comment": null, "emergency": null}, "geometry": {"type": "Point", "coordinates": [80.2293536, 12.9856999]}}, {"id": "5", "type": "Feature", "properties": {"element": "node", "id": 6914880539, "amenity": "hospital", "healthcare": "hospital", "name": "Chennai Eye Care Hospital", "addr:postcode": "600042", "is_in": null, "name:en": null, "addr:street": null, "addr:district": "Chennai", "addr:full": "No 6 12Th Cross Steet Dhandeeswaram Nagar Velachery", "addr:state": "Tamil Nadu", "source": "OpenGovernmentData", "check_date": null, "addr:city": null, "operator": null, "operator:type": null, "operator:wikidata": null, "website": null, "healthcare:speciality": null, "addr:housenumber": null, "email": null, "phone": null, "opening_hours": null, "name:ta": null, "building": null, "comment": null, "emergency": null}, "geometry": {"type": "Point", "coordinates": [80.2246302, 12.9789449]}}, {"id": "6", "type": "Feature", "properties": {"element": "node", "id": 6915201226, "amenity": "hospital", "healthcare": "hospital", "name": "Helios Hospital Pvt Ltd", "addr:postcode": "600042", "is_in": null, "name:en": null, "addr:street": null, "addr:district": "Chennai", "addr:full": "No.39, Rajalakhsmi Nagar", "addr:state": "Tamil Nadu", "source": "OpenGovernmentData", "check_date": "2026-02-24", "addr:city": null, "operator": null, "operator:type": null, "operator:wikidata": null, "website": null, "healthcare:speciality": null, "addr:housenumber": null, "email": null, "phone": null, "opening_hours": null, "name:ta": null, "building": null, "comment": null, "emergency": null}, "geometry": {"type": "Point", "coordinates": [80.2189144, 12.9855882]}}, {"id": "7", "type": "Feature", "properties": {"element": "node", "id": 6926045316, "amenity": "clinic", "healthcare": "clinic", "name": "Ramana Clinic And Nursing Home", "addr:postcode": "600004", "is_in": null, "name:en": null, "addr:street": null, "addr:district": "Chennai", "addr:full": "320-A(47-A), Velachery Main Road, Velachery", "addr:state": "Tamil Nadu", "source": "OpenGovernmentData", "check_date": null, "addr:city": null, "operator": null, "operator:type": null, "operator:wikidata": null, "website": null, "healthcare:speciality": null, "addr:housenumber": null, "email": null, "phone": null, "opening_hours": null, "name:ta": null, "building": null, "comment": null, "emergency": null}, "geometry": {"type": "Point", "coordinates": [80.2207484, 12.9815305]}}, {"id": "8", "type": "Feature", "properties": {"element": "node", "id": 6928094720, "amenity": "hospital", "healthcare": "hospital", "name": "Athipathi Hospital and Research Centre", "addr:postcode": "600042", "is_in": null, "name:en": null, "addr:street": null, "addr:district": "Chennai", "addr:full": "No.-4, 100 Feet Road, Tansi Nagar, Velachery", "addr:state": "Tamil Nadu", "source": "OpenGovernmentData", "check_date": null, "addr:city": null, "operator": null, "operator:type": null, "operator:wikidata": null, "website": null, "healthcare:speciality": null, "addr:housenumber": null, "email": null, "phone": null, "opening_hours": null, "name:ta": null, "building": null, "comment": null, "emergency": null}, "geometry": {"type": "Point", "coordinates": [80.2222002, 12.9762711]}}, {"id": "9", "type": "Feature", "properties": {"element": "node", "id": 6928936148, "amenity": "hospital", "healthcare": "hospital", "name": "Dr.Agarwals Eye Hospital", "addr:postcode": "600042", "is_in": null, "name:en": null, "addr:street": null, "addr:district": null, "addr:full": "27, 100 Feet Road, Taramani Link Road, Velacherry", "addr:state": "Tamil Nadu", "source": "OpenGovernmentData", "check_date": null, "addr:city": "Chennai", "operator": "Dr. Agarwal's Eye Hospital", "operator:type": "private", "operator:wikidata": "Q17052044", "website": "https://www.dragarwal.com/eye-hospital/velachery/", "healthcare:speciality": null, "addr:housenumber": null, "email": null, "phone": null, "opening_hours": null, "name:ta": null, "building": null, "comment": null, "emergency": null}, "geometry": {"type": "Point", "coordinates": [80.2176077, 12.9832681]}}, {"id": "10", "type": "Feature", "properties": {"element": "node", "id": 6929264393, "amenity": "clinic", "healthcare": "clinic", "name": "Aarthi Priyas Tooth Care Clinic", "addr:postcode": "600042", "is_in": null, "name:en": null, "addr:street": null, "addr:district": "Chennai", "addr:full": "No. 5, C-Block, Paramount Park, Mega Mart(Upstair), Vijaya Nagar, Velachery", "addr:state": "Tamil Nadu", "source": "OpenGovernmentData", "check_date": "2026-03-11", "addr:city": null, "operator": null, "operator:type": null, "operator:wikidata": null, "website": null, "healthcare:speciality": "dentistry", "addr:housenumber": null, "email": null, "phone": null, "opening_hours": null, "name:ta": null, "building": null, "comment": null, "emergency": null}, "geometry": {"type": "Point", "coordinates": [80.2200463, 12.9743958]}}, {"id": "11", "type": "Feature", "properties": {"element": "node", "id": 6934340601, "amenity": "hospital", "healthcare": "hospital", "name": "Nandhini Hospital", "addr:postcode": "600042", "is_in": null, "name:en": null, "addr:street": null, "addr:district": "Chennai", "addr:full": "40B, Tansi Nagar Vii St, Velachery", "addr:state": "Tamil Nadu", "source": "OpenGovernmentData", "check_date": null, "addr:city": null, "operator": null, "operator:type": null, "operator:wikidata": null, "website": null, "healthcare:speciality": null, "addr:housenumber": null, "email": null, "phone": null, "opening_hours": null, "name:ta": null, "building": null, "comment": null, "emergency": null}, "geometry": {"type": "Point", "coordinates": [80.2247932, 12.9784706]}}, {"id": "12", "type": "Feature", "properties": {"element": "node", "id": 6936663153, "amenity": "hospital", "healthcare": "hospital", "name": "Velachery K S Hospital", "addr:postcode": "600042", "is_in": null, "name:en": null, "addr:street": null, "addr:district": "Chennai", "addr:full": "No.14, 10Th Cross Street , A.G.S.Colony, Velachery", "addr:state": "Tamil Nadu", "source": "OpenGovernmentData", "check_date": null, "addr:city": null, "operator": null, "operator:type": null, "operator:wikidata": null, "website": null, "healthcare:speciality": null, "addr:housenumber": null, "email": null, "phone": null, "opening_hours": null, "name:ta": null, "building": null, "comment": null, "emergency": null}, "geometry": {"type": "Point", "coordinates": [80.2114016, 12.9763914]}}, {"id": "13", "type": "Feature", "properties": {"element": "node", "id": 6936695177, "amenity": "hospital", "healthcare": "hospital", "name": "Xcellent Care Superspeciality Hospital", "addr:postcode": "600042", "is_in": null, "name:en": null, "addr:street": null, "addr:district": "Chennai", "addr:full": "7/14, 7Th Cross Street, Rajalakshmi Nagar, Velachery", "addr:state": "Tamil Nadu", "source": "OpenGovernmentData", "check_date": null, "addr:city": null, "operator": null, "operator:type": null, "operator:wikidata": null, "website": null, "healthcare:speciality": null, "addr:housenumber": null, "email": null, "phone": null, "opening_hours": null, "name:ta": null, "building": null, "comment": null, "emergency": null}, "geometry": {"type": "Point", "coordinates": [80.2181782, 12.9833895]}}, {"id": "14", "type": "Feature", "properties": {"element": "node", "id": 6937055902, "amenity": "hospital", "healthcare": "hospital", "name": "Appasamy Krishna Hospital and Medical Research Centre", "addr:postcode": "600042", "is_in": null, "name:en": null, "addr:street": null, "addr:district": "Chennai", "addr:full": "Plot No. 191, 100 Feet By-Pass Road, Velacherry", "addr:state": "Tamil Nadu", "source": "OpenGovernmentData", "check_date": null, "addr:city": null, "operator": null, "operator:type": null, "operator:wikidata": null, "website": null, "healthcare:speciality": null, "addr:housenumber": null, "email": null, "phone": null, "opening_hours": null, "name:ta": null, "building": null, "comment": null, "emergency": null}, "geometry": {"type": "Point", "coordinates": [80.2205016, 12.9758647]}}, {"id": "15", "type": "Feature", "properties": {"element": "node", "id": 8639896900, "amenity": "hospital", "healthcare": "hospital", "name": "Prashanth Hospitals", "addr:postcode": "600042", "is_in": null, "name:en": null, "addr:street": "Velachery Main Road", "addr:district": null, "addr:full": null, "addr:state": null, "source": null, "check_date": null, "addr:city": "Chennai", "operator": null, "operator:type": null, "operator:wikidata": null, "website": "https://prashanthhospitals.org", "healthcare:speciality": null, "addr:housenumber": "36", "email": "info@prashanthhospitals.org", "phone": "+91 44 2243 9494;+91 44 4680 5544;+91 82962 63415", "opening_hours": null, "name:ta": null, "building": null, "comment": null, "emergency": null}, "geometry": {"type": "Point", "coordinates": [80.2214698, 12.9784544]}}, {"id": "16", "type": "Feature", "properties": {"element": "node", "id": 13155026101, "amenity": "hospital", "healthcare": null, "name": "Good Shepard hospital", "addr:postcode": null, "is_in": null, "name:en": null, "addr:street": "Taramani Link Road", "addr:district": null, "addr:full": null, "addr:state": null, "source": null, "check_date": null, "addr:city": null, "operator": null, "operator:type": null, "operator:wikidata": null, "website": null, "healthcare:speciality": null, "addr:housenumber": null, "email": null, "phone": null, "opening_hours": "24/7", "name:ta": null, "building": null, "comment": null, "emergency": null}, "geometry": {"type": "Point", "coordinates": [80.2343492, 12.9810842]}}, {"id": "17", "type": "Feature", "properties": {"element": "node", "id": 14045662234, "amenity": "clinic", "healthcare": "clinic", "name": "Jeevan Clinic", "addr:postcode": "600042", "is_in": null, "name:en": null, "addr:street": "Marudupandi Street", "addr:district": null, "addr:full": null, "addr:state": null, "source": null, "check_date": null, "addr:city": "Chennai", "operator": null, "operator:type": null, "operator:wikidata": null, "website": null, "healthcare:speciality": "general", "addr:housenumber": "10", "email": null, "phone": "+919884883542", "opening_hours": null, "name:ta": "\u0b9c\u0bc0\u0bb5\u0ba9\u0bcd \u0b95\u0bbf\u0bb3\u0bbf\u0ba9\u0bbf\u0b95\u0bcd", "building": null, "comment": null, "emergency": null}, "geometry": {"type": "Point", "coordinates": [80.2173524, 12.9878169]}}, {"id": "18", "type": "Feature", "properties": {"element": "node", "id": 14049890108, "amenity": "clinic", "healthcare": "clinic", "name": "Arunai Clinic", "addr:postcode": null, "is_in": null, "name:en": null, "addr:street": null, "addr:district": null, "addr:full": null, "addr:state": null, "source": null, "check_date": null, "addr:city": null, "operator": null, "operator:type": null, "operator:wikidata": null, "website": null, "healthcare:speciality": null, "addr:housenumber": null, "email": null, "phone": null, "opening_hours": null, "name:ta": "\u0b85\u0bb0\u0bc1\u0ba3\u0bc8 \u0b95\u0bbf\u0bb3\u0bbf\u0ba9\u0bbf\u0b95\u0bcd", "building": null, "comment": null, "emergency": null}, "geometry": {"type": "Point", "coordinates": [80.2115352, 12.9899507]}}, {"id": "19", "type": "Feature", "properties": {"element": "way", "id": 354810486, "amenity": "hospital", "healthcare": "hospital", "name": null, "addr:postcode": null, "is_in": null, "name:en": null, "addr:street": null, "addr:district": null, "addr:full": null, "addr:state": null, "source": null, "check_date": null, "addr:city": null, "operator": null, "operator:type": null, "operator:wikidata": null, "website": null, "healthcare:speciality": null, "addr:housenumber": null, "email": null, "phone": null, "opening_hours": null, "name:ta": null, "building": "yes", "comment": "Private Nursing home", "emergency": null}, "geometry": {"type": "Point", "coordinates": [80.22891302367995, 12.985660450000001]}}, {"id": "20", "type": "Feature", "properties": {"element": "way", "id": 355074781, "amenity": "hospital", "healthcare": null, "name": "Xcellent Care Hospital", "addr:postcode": null, "is_in": null, "name:en": null, "addr:street": "7th Cross Street, Rajalaksmi nagar", "addr:district": null, "addr:full": null, "addr:state": null, "source": null, "check_date": null, "addr:city": null, "operator": "Xcellent Care Super Speciality Hospital ( P ) Ltd.", "operator:type": null, "operator:wikidata": null, "website": "http://xcellentcarehospital.com", "healthcare:speciality": null, "addr:housenumber": null, "email": null, "phone": null, "opening_hours": null, "name:ta": null, "building": "hospital", "comment": null, "emergency": "yes"}, "geometry": {"type": "Point", "coordinates": [80.2184246249641, 12.9856002]}}, {"id": "21", "type": "Feature", "properties": {"element": "way", "id": 364721502, "amenity": "hospital", "healthcare": "hospital", "name": "Athipathy Hospitals", "addr:postcode": null, "is_in": null, "name:en": null, "addr:street": null, "addr:district": null, "addr:full": null, "addr:state": null, "source": null, "check_date": null, "addr:city": null, "operator": null, "operator:type": null, "operator:wikidata": null, "website": null, "healthcare:speciality": null, "addr:housenumber": null, "email": null, "phone": null, "opening_hours": null, "name:ta": null, "building": null, "comment": null, "emergency": null}, "geometry": {"type": "Point", "coordinates": [80.22219035686352, 12.97643445]}}]}